start=new Date('2022-10-08T00:00:00.000Z').valueOf();
sats=[{"PERIOD":"95.438","SEMIMAJOR_AXIS":"6917.887","OBJECT_ID":"2021-115T","EPHEMERIS_TYPE":"0","CENTER_NAME":"EARTH","INCLINATION":"53.2170","NORAD_CAT_ID":"49741","PERIAPSIS":"538.357","MEAN_MOTION_DOT":"0.00001995","BSTAR":"0.00014343000000","ELEMENT_SET_NO":"999","SITE":"AFETR","MEAN_MOTION_DDOT":"0.0000000000000","APOAPSIS":"541.147","GP_ID":"214436068","EPOCH":"2022-10-07T17:25:19.221888","DECAY_DATE":null,"CLASSIFICATION_TYPE":"U","TLE_LINE2":"2 49741  53.2170 355.9293 0002016  44.5249 315.5905 15.08837846 46983","OBJECT_TYPE":"PAYLOAD","TLE_LINE1":"1 49741U 21115T   22280.72591692  .00001995  00000-0  14343-3 0  9992","MEAN_ANOMALY":"315.5905","MEAN_MOTION":"15.08837846","REF_FRAME":"TEME","RCS_SIZE":"LARGE","LAUNCH_DATE":"2021-12-02","ARG_OF_PERICENTER":"44.5249","COUNTRY_CODE":"US","MEAN_ELEMENT_THEORY":"SGP4","OBJECT_NAME":"STARLINK-3244","TIME_SYSTEM":"UTC","ECCENTRICITY":"0.00020160","FILE":"3595773","RA_OF_ASC_NODE":"355.9293","REV_AT_EPOCH":"4698"},{"SITE":"AFETR","BSTAR":"0.00032669000000","ELEMENT_SET_NO":"999","MEAN_MOTION_DOT":"0.00004917","PERIAPSIS":"538.273","NORAD_CAT_ID":"49742","INCLINATION":"53.2176","DECAY_DATE":null,"CLASSIFICATION_TYPE":"U","EPOCH":"2022-10-07T13:00:20.836512","GP_ID":"214436820","APOAPSIS":"541.145","MEAN_MOTION_DDOT":"0.0000000000000","OBJECT_ID":"2021-115U","EPHEMERIS_TYPE":"0","SEMIMAJOR_AXIS":"6917.844","PERIOD":"95.437","CENTER_NAME":"EARTH","LAUNCH_DATE":"2021-12-02","RCS_SIZE":"LARGE","REF_FRAME":"TEME","MEAN_MOTION":"15.08851986","REV_AT_EPOCH":"4695","RA_OF_ASC_NODE":"356.7670","FILE":"3595773","ECCENTRICITY":"0.00020760","TIME_SYSTEM":"UTC","OBJECT_NAME":"STARLINK-3202","MEAN_ELEMENT_THEORY":"SGP4","COUNTRY_CODE":"US","ARG_OF_PERICENTER":"31.3528","OBJECT_TYPE":"PAYLOAD","TLE_LINE2":"2 49742  53.2176 356.7670 0002076  31.3528 328.7587 15.08851986 46958","MEAN_ANOMALY":"328.7587","TLE_LINE1":"1 49742U 21115U   22280.54190783  .00004917  00000-0  32669-3 0  9997"},{"MEAN_ANOMALY":"318.2417","TLE_LINE1":"1 49743U 21115V   22280.72959951  .00004992  00000-0  33148-3 0  9994","OBJECT_TYPE":"PAYLOAD","TLE_LINE2":"2 49743  53.2172 355.9225 0001991  41.8727 318.2417 15.08846799 46989","ECCENTRICITY":"0.00019910","TIME_SYSTEM":"UTC","REV_AT_EPOCH":"4698","RA_OF_ASC_NODE":"355.9225","FILE":"3595773","ARG_OF_PERICENTER":"41.8727","COUNTRY_CODE":"US","OBJECT_NAME":"STARLINK-3239","MEAN_ELEMENT_THEORY":"SGP4","LAUNCH_DATE":"2021-12-02","REF_FRAME":"TEME","MEAN_MOTION":"15.08846799","RCS_SIZE":"LARGE","CENTER_NAME":"EARTH","SEMIMAJOR_AXIS":"6917.860","OBJECT_ID":"2021-115V","EPHEMERIS_TYPE":"0","PERIOD":"95.437","GP_ID":"214437571","EPOCH":"2022-10-07T17:30:37.397664","DECAY_DATE":null,"CLASSIFICATION_TYPE":"U","MEAN_MOTION_DDOT":"0.0000000000000","APOAPSIS":"541.102","SITE":"AFETR","BSTAR":"0.00033148000000","ELEMENT_SET_NO":"999","NORAD_CAT_ID":"49743","PERIAPSIS":"538.347","INCLINATION":"53.2172","MEAN_MOTION_DOT":"0.00004992"},{"OBJECT_NAME":"STARLINK-3231","MEAN_ELEMENT_THEORY":"SGP4","COUNTRY_CODE":"US","ARG_OF_PERICENTER":"47.5199","RA_OF_ASC_NODE":"357.0240","REV_AT_EPOCH":"4694","FILE":"3595773","ECCENTRICITY":"0.00018360","TIME_SYSTEM":"UTC","RCS_SIZE":"LARGE","REF_FRAME":"TEME","MEAN_MOTION":"15.08854032","LAUNCH_DATE":"2021-12-02","MEAN_ANOMALY":"312.5949","TLE_LINE1":"1 49744U 21115W   22280.48303853  .00009236  00000-0  59740-3 0  9994","TLE_LINE2":"2 49744  53.2174 357.0240 0001836  47.5199 312.5949 15.08854032 46948","OBJECT_TYPE":"PAYLOAD","APOAPSIS":"540.973","MEAN_MOTION_DDOT":"0.0000000000000","CLASSIFICATION_TYPE":"U","DECAY_DATE":null,"EPOCH":"2022-10-07T11:35:34.528992","GP_ID":"214436319","MEAN_MOTION_DOT":"0.00009236","PERIAPSIS":"538.432","NORAD_CAT_ID":"49744","INCLINATION":"53.2174","SITE":"AFETR","ELEMENT_SET_NO":"999","BSTAR":"0.00059740000000","CENTER_NAME":"EARTH","PERIOD":"95.437","OBJECT_ID":"2021-115W","EPHEMERIS_TYPE":"0","SEMIMAJOR_AXIS":"6917.837"},{"ECCENTRICITY":"0.00018810","TIME_SYSTEM":"UTC","RA_OF_ASC_NODE":"356.7885","REV_AT_EPOCH":"4695","FILE":"3595773","ARG_OF_PERICENTER":"47.6166","COUNTRY_CODE":"US","OBJECT_NAME":"STARLINK-3241","MEAN_ELEMENT_THEORY":"SGP4","LAUNCH_DATE":"2021-12-02","REF_FRAME":"TEME","MEAN_MOTION":"15.08845428","RCS_SIZE":"LARGE","MEAN_ANOMALY":"312.4985","TLE_LINE1":"1 49745U 21115X   22280.53823212  .00004412  00000-0  29511-3 0  9991","OBJECT_TYPE":"PAYLOAD","TLE_LINE2":"2 49745  53.2193 356.7885 0001881  47.6166 312.4985 15.08845428 46955","GP_ID":"214436569","EPOCH":"2022-10-07T12:55:03.255168","DECAY_DATE":null,"CLASSIFICATION_TYPE":"U","MEAN_MOTION_DDOT":"0.0000000000000","APOAPSIS":"541.030","SITE":"AFETR","BSTAR":"0.00029511000000","ELEMENT_SET_NO":"999","NORAD_CAT_ID":"49745","PERIAPSIS":"538.428","INCLINATION":"53.2193","MEAN_MOTION_DOT":"0.00004412","CENTER_NAME":"EARTH","SEMIMAJOR_AXIS":"6917.864","OBJECT_ID":"2021-115X","EPHEMERIS_TYPE":"0","PERIOD":"95.437"},{"TLE_LINE2":"2 49746  53.2162 356.0940 0002108  36.8030 323.3107 15.08852379 46972","OBJECT_TYPE":"PAYLOAD","TLE_LINE1":"1 49746U 21115Y   22280.68911433  .00002912  00000-0  20090-3 0  9997","MEAN_ANOMALY":"323.3107","RCS_SIZE":"MEDIUM","MEAN_MOTION":"15.08852379","REF_FRAME":"TEME","LAUNCH_DATE":"2021-12-02","MEAN_ELEMENT_THEORY":"SGP4","OBJECT_NAME":"STARLINK-3233","COUNTRY_CODE":"US","ARG_OF_PERICENTER":"36.8030","FILE":"3595773","REV_AT_EPOCH":"4697","RA_OF_ASC_NODE":"356.0940","TIME_SYSTEM":"UTC","ECCENTRICITY":"0.00021080","PERIOD":"95.437","EPHEMERIS_TYPE":"0","OBJECT_ID":"2021-115Y","SEMIMAJOR_AXIS":"6917.843","CENTER_NAME":"EARTH","MEAN_MOTION_DOT":"0.00002912","INCLINATION":"53.2162","PERIAPSIS":"538.249","NORAD_CAT_ID":"49746","BSTAR":"0.00020090000000","ELEMENT_SET_NO":"999","SITE":"AFETR","MEAN_MOTION_DDOT":"0.0000000000000","APOAPSIS":"541.166","DECAY_DATE":null,"CLASSIFICATION_TYPE":"U","GP_ID":"214437321","EPOCH":"2022-10-07T16:32:19.478112"},{"COUNTRY_CODE":"US","ARG_OF_PERICENTER":"35.8191","MEAN_ELEMENT_THEORY":"SGP4","OBJECT_NAME":"STARLINK-3247","TIME_SYSTEM":"UTC","ECCENTRICITY":"0.00021310","FILE":"3595509","REV_AT_EPOCH":"4694","RA_OF_ASC_NODE":"357.0381","MEAN_MOTION":"15.08857551","REF_FRAME":"TEME","RCS_SIZE":"LARGE","LAUNCH_DATE":"2021-12-02","TLE_LINE1":"1 49747U 21115Z   22280.47935479  .00010926  00000-0  70314-3 0  9999","MEAN_ANOMALY":"324.2943","TLE_LINE2":"2 49747  53.2180 357.0381 0002131  35.8191 324.2943 15.08857551 46948","OBJECT_TYPE":"PAYLOAD","MEAN_MOTION_DDOT":"0.0000000000000","APOAPSIS":"541.166","GP_ID":"214405260","EPOCH":"2022-10-07T11:30:16.253856","CLASSIFICATION_TYPE":"U","DECAY_DATE":null,"INCLINATION":"53.2180","PERIAPSIS":"538.218","NORAD_CAT_ID":"49747","MEAN_MOTION_DOT":"0.00010926","BSTAR":"0.00070314000000","ELEMENT_SET_NO":"999","SITE":"AFETR","CENTER_NAME":"EARTH","PERIOD":"95.436","SEMIMAJOR_AXIS":"6917.827","OBJECT_ID":"2021-115Z","EPHEMERIS_TYPE":"0"},{"FILE":"3595742","REV_AT_EPOCH":"4805","RA_OF_ASC_NODE":"357.2755","TIME_SYSTEM":"UTC","ECCENTRICITY":"0.00019350","MEAN_ELEMENT_THEORY":"SGP4","OBJECT_NAME":"STARLINK-3248","COUNTRY_CODE":"US","ARG_OF_PERICENTER":"34.2747","LAUNCH_DATE":"2021-12-02","RCS_SIZE":"LARGE","MEAN_MOTION":"15.08850347","REF_FRAME":"TEME","TLE_LINE1":"1 49748U 21115AA  22280.43151605  .00006020  00000-0  39591-3 0  9999","MEAN_ANOMALY":"325.8369","OBJECT_TYPE":"PAYLOAD","TLE_LINE2":"2 49748  53.2173 357.2755 0001935  34.2747 325.8369 15.08850347 48058","DECAY_DATE":null,"CLASSIFICATION_TYPE":"U","EPOCH":"2022-10-07T10:21:22.986720","GP_ID":"214412719","MEAN_MOTION_DDOT":"0.0000000000000","APOAPSIS":"541.052","BSTAR":"0.00039591000000","ELEMENT_SET_NO":"999","SITE":"AFETR","MEAN_MOTION_DOT":"0.00006020","INCLINATION":"53.2173","PERIAPSIS":"538.375","NORAD_CAT_ID":"49748","CENTER_NAME":"EARTH","EPHEMERIS_TYPE":"0","OBJECT_ID":"2021-115AA","SEMIMAJOR_AXIS":"6917.849","PERIOD":"95.437"},{"TLE_LINE2":"2 49749  53.2196 356.1188 0001910  35.1110 325.0008 15.08848833 46977","OBJECT_TYPE":"PAYLOAD","TLE_LINE1":"1 49749U 21115AB  22280.68542630  .00002003  00000-0  14386-3 0  9991","MEAN_ANOMALY":"325.0008","MEAN_MOTION":"15.08848833","REF_FRAME":"TEME","RCS_SIZE":"LARGE","LAUNCH_DATE":"2021-12-02","ARG_OF_PERICENTER":"35.1110","COUNTRY_CODE":"US","MEAN_ELEMENT_THEORY":"SGP4","OBJECT_NAME":"STARLINK-3250","TIME_SYSTEM":"UTC","ECCENTRICITY":"0.00019100","FILE":"3595773","REV_AT_EPOCH":"4697","RA_OF_ASC_NODE":"356.1188","PERIOD":"95.437","SEMIMAJOR_AXIS":"6917.853","OBJECT_ID":"2021-115AB","EPHEMERIS_TYPE":"0","CENTER_NAME":"EARTH","INCLINATION":"53.2196","NORAD_CAT_ID":"49749","PERIAPSIS":"538.397","MEAN_MOTION_DOT":"0.00002003","ELEMENT_SET_NO":"999","BSTAR":"0.00014386000000","SITE":"AFETR","MEAN_MOTION_DDOT":"0.0000000000000","APOAPSIS":"541.040","EPOCH":"2022-10-07T16:27:00.832320","GP_ID":"214436069","CLASSIFICATION_TYPE":"U","DECAY_DATE":null},{"OBJECT_TYPE":"PAYLOAD","TLE_LINE2":"2 49750  53.2181 356.3408 0002235  38.9730 321.1423 15.08848852 46979","TLE_LINE1":"1 49750U 21115AC  22280.63759488  .00007681  00000-0  50006-3 0  9995","MEAN_ANOMALY":"321.1423","LAUNCH_DATE":"2021-12-02","RCS_SIZE":"LARGE","MEAN_MOTION":"15.08848852","REF_FRAME":"TEME","FILE":"3595773","RA_OF_ASC_NODE":"356.3408","REV_AT_EPOCH":"4697","TIME_SYSTEM":"UTC","ECCENTRICITY":"0.00022350","MEAN_ELEMENT_THEORY":"SGP4","OBJECT_NAME":"STARLINK-3236","ARG_OF_PERICENTER":"38.9730","COUNTRY_CODE":"US","OBJECT_ID":"2021-115AC","EPHEMERIS_TYPE":"0","SEMIMAJOR_AXIS":"6917.853","PERIOD":"95.437","CENTER_NAME":"EARTH","ELEMENT_SET_NO":"999","BSTAR":"0.00050006000000","SITE":"AFETR","MEAN_MOTION_DOT":"0.00007681","INCLINATION":"53.2181","NORAD_CAT_ID":"49750","PERIAPSIS":"538.172","DECAY_DATE":null,"CLASSIFICATION_TYPE":"U","GP_ID":"214436821","EPOCH":"2022-10-07T15:18:08.197632","MEAN_MOTION_DDOT":"0.0000000000000","APOAPSIS":"541.264"}];
